{
  "type": "FeatureCollection",
  "features": [
    {
      "type": "Feature",
      "properties": {
        "norad_id": 43508,
        "name": "COSMOS 2527 (756)",
        "group": "glo-ops",
        "lat": NaN,
        "lon": NaN,
        "alt_km": NaN,
        "timestamp": "2025-12-01T03:08:34.176376+00:00",
        "meta": {
          "OBJECT_NAME": "COSMOS 2527 (756)",
          "OBJECT_ID": "2018-053A",
          "EPOCH": "2025-11-28T17:02:34.696320",
          "MEAN_MOTION": 2.1310209,
          "ECCENTRICITY": 0.00085767,
          "INCLINATION": 65.4651,
          "RA_OF_ASC_NODE": 80.6007,
          "ARG_OF_PERICENTER": 223.0414,
          "MEAN_ANOMALY": 136.8979,
          "EPHEMERIS_TYPE": 0,
          "CLASSIFICATION_TYPE": "U",
          "NORAD_CAT_ID": 43508,
          "ELEMENT_SET_NO": 999,
          "REV_AT_EPOCH": 5800,
          "BSTAR": 0,
          "MEAN_MOTION_DOT": 1.2e-07,
          "MEAN_MOTION_DDOT": 0
        }
      },
      "geometry": {
        "type": "Point",
        "coordinates": [
          NaN,
          NaN
        ]
      }
    },
    {
      "type": "Feature",
      "properties": {
        "norad_id": 43687,
        "name": "COSMOS 2529 (757)",
        "group": "glo-ops",
        "lat": NaN,
        "lon": NaN,
        "alt_km": NaN,
        "timestamp": "2025-12-01T03:08:34.176389+00:00",
        "meta": {
          "OBJECT_NAME": "COSMOS 2529 (757)",
          "OBJECT_ID": "2018-086A",
          "EPOCH": "2025-11-30T05:10:11.501760",
          "MEAN_MOTION": 2.13101906,
          "ECCENTRICITY": 0.00073766,
          "INCLINATION": 64.2916,
          "RA_OF_ASC_NODE": 199.3117,
          "ARG_OF_PERICENTER": 254.6594,
          "MEAN_ANOMALY": 105.3481,
          "EPHEMERIS_TYPE": 0,
          "CLASSIFICATION_TYPE": "U",
          "NORAD_CAT_ID": 43687,
          "ELEMENT_SET_NO": 999,
          "REV_AT_EPOCH": 5504,
          "BSTAR": 0,
          "MEAN_MOTION_DOT": 9.1e-07,
          "MEAN_MOTION_DDOT": 0
        }
      },
      "geometry": {
        "type": "Point",
        "coordinates": [
          NaN,
          NaN
        ]
      }
    },
    {
      "type": "Feature",
      "properties": {
        "norad_id": 44299,
        "name": "COSMOS 2534 (758)",
        "group": "glo-ops",
        "lat": NaN,
        "lon": NaN,
        "alt_km": NaN,
        "timestamp": "2025-12-01T03:08:34.176407+00:00",
        "meta": {
          "OBJECT_NAME": "COSMOS 2534 (758)",
          "OBJECT_ID": "2019-030A",
          "EPOCH": "2025-11-30T04:32:59.601408",
          "MEAN_MOTION": 2.13101977,
          "ECCENTRICITY": 0.00091335,
          "INCLINATION": 64.3652,
          "RA_OF_ASC_NODE": 199.3159,
          "ARG_OF_PERICENTER": 283.4728,
          "MEAN_ANOMALY": 191.1332,
          "EPHEMERIS_TYPE": 0,
          "CLASSIFICATION_TYPE": "U",
          "NORAD_CAT_ID": 44299,
          "ELEMENT_SET_NO": 999,
          "REV_AT_EPOCH": 5068,
          "BSTAR": 0,
          "MEAN_MOTION_DOT": 9.1e-07,
          "MEAN_MOTION_DDOT": 0
        }
      },
      "geometry": {
        "type": "Point",
        "coordinates": [
          NaN,
          NaN
        ]
      }
    },
    {
      "type": "Feature",
      "properties": {
        "norad_id": 44850,
        "name": "COSMOS 2544 (759)",
        "group": "glo-ops",
        "lat": NaN,
        "lon": NaN,
        "alt_km": NaN,
        "timestamp": "2025-12-01T03:08:34.176424+00:00",
        "meta": {
          "OBJECT_NAME": "COSMOS 2544 (759)",
          "OBJECT_ID": "2019-088A",
          "EPOCH": "2025-11-28T15:42:43.210656",
          "MEAN_MOTION": 2.13101801,
          "ECCENTRICITY": 0.00135594,
          "INCLINATION": 65.4525,
          "RA_OF_ASC_NODE": 80.4296,
          "ARG_OF_PERICENTER": 248.4541,
          "MEAN_ANOMALY": 111.4081,
          "EPHEMERIS_TYPE": 0,
          "CLASSIFICATION_TYPE": "U",
          "NORAD_CAT_ID": 44850,
          "ELEMENT_SET_NO": 999,
          "REV_AT_EPOCH": 4644,
          "BSTAR": 0,
          "MEAN_MOTION_DOT": 1.2e-07,
          "MEAN_MOTION_DDOT": 0
        }
      },
      "geometry": {
        "type": "Point",
        "coordinates": [
          NaN,
          NaN
        ]
      }
    },
    {
      "type": "Feature",
      "properties": {
        "norad_id": 45358,
        "name": "COSMOS 2545 (760)",
        "group": "glo-ops",
        "lat": NaN,
        "lon": NaN,
        "alt_km": NaN,
        "timestamp": "2025-12-01T03:08:34.176442+00:00",
        "meta": {
          "OBJECT_NAME": "COSMOS 2545 (760)",
          "OBJECT_ID": "2020-018A",
          "EPOCH": "2025-11-30T06:11:57.120864",
          "MEAN_MOTION": 2.13102401,
          "ECCENTRICITY": 0.00119448,
          "INCLINATION": 64.4769,
          "RA_OF_ASC_NODE": 319.4079,
          "ARG_OF_PERICENTER": 248.2158,
          "MEAN_ANOMALY": 111.6706,
          "EPHEMERIS_TYPE": 0,
          "CLASSIFICATION_TYPE": "U",
          "NORAD_CAT_ID": 45358,
          "ELEMENT_SET_NO": 999,
          "REV_AT_EPOCH": 4442,
          "BSTAR": 0,
          "MEAN_MOTION_DOT": -2.2e-07,
          "MEAN_MOTION_DDOT": 0
        }
      },
      "geometry": {
        "type": "Point",
        "coordinates": [
          NaN,
          NaN
        ]
      }
    },
    {
      "type": "Feature",
      "properties": {
        "norad_id": 46805,
        "name": "COSMOS 2547 (705K)",
        "group": "glo-ops",
        "lat": NaN,
        "lon": NaN,
        "alt_km": NaN,
        "timestamp": "2025-12-01T03:08:34.176484+00:00",
        "meta": {
          "OBJECT_NAME": "COSMOS 2547 (705K)",
          "OBJECT_ID": "2020-075A",
          "EPOCH": "2025-11-29T23:26:53.746944",
          "MEAN_MOTION": 2.1309989,
          "ECCENTRICITY": 0.00063319,
          "INCLINATION": 64.5957,
          "RA_OF_ASC_NODE": 199.1228,
          "ARG_OF_PERICENTER": 229.7361,
          "MEAN_ANOMALY": 130.2968,
          "EPHEMERIS_TYPE": 0,
          "CLASSIFICATION_TYPE": "U",
          "NORAD_CAT_ID": 46805,
          "ELEMENT_SET_NO": 999,
          "REV_AT_EPOCH": 3966,
          "BSTAR": 0,
          "MEAN_MOTION_DOT": 8.9e-07,
          "MEAN_MOTION_DDOT": 0
        }
      },
      "geometry": {
        "type": "Point",
        "coordinates": [
          NaN,
          NaN
        ]
      }
    },
    {
      "type": "Feature",
      "properties": {
        "norad_id": 52984,
        "name": "COSMOS 2557 (706K)",
        "group": "glo-ops",
        "lat": NaN,
        "lon": NaN,
        "alt_km": NaN,
        "timestamp": "2025-12-01T03:08:34.176682+00:00",
        "meta": {
          "OBJECT_NAME": "COSMOS 2557 (706K)",
          "OBJECT_ID": "2022-075A",
          "EPOCH": "2025-11-30T03:25:00.343776",
          "MEAN_MOTION": 2.13101793,
          "ECCENTRICITY": 0.00137637,
          "INCLINATION": 64.4168,
          "RA_OF_ASC_NODE": 321.4948,
          "ARG_OF_PERICENTER": 276.2798,
          "MEAN_ANOMALY": 83.5796,
          "EPHEMERIS_TYPE": 0,
          "CLASSIFICATION_TYPE": "U",
          "NORAD_CAT_ID": 52984,
          "ELEMENT_SET_NO": 999,
          "REV_AT_EPOCH": 2647,
          "BSTAR": 0,
          "MEAN_MOTION_DOT": -2.2e-07,
          "MEAN_MOTION_DDOT": 0
        }
      },
      "geometry": {
        "type": "Point",
        "coordinates": [
          NaN,
          NaN
        ]
      }
    },
    {
      "type": "Feature",
      "properties": {
        "norad_id": 54031,
        "name": "COSMOS 2559 (707K)",
        "group": "glo-ops",
        "lat": NaN,
        "lon": NaN,
        "alt_km": NaN,
        "timestamp": "2025-12-01T03:08:34.176760+00:00",
        "meta": {
          "OBJECT_NAME": "COSMOS 2559 (707K)",
          "OBJECT_ID": "2022-130A",
          "EPOCH": "2025-11-29T23:04:34.368096",
          "MEAN_MOTION": 2.13101289,
          "ECCENTRICITY": 0.00121281,
          "INCLINATION": 64.3892,
          "RA_OF_ASC_NODE": 321.591,
          "ARG_OF_PERICENTER": 192.8743,
          "MEAN_ANOMALY": 167.1117,
          "EPHEMERIS_TYPE": 0,
          "CLASSIFICATION_TYPE": "U",
          "NORAD_CAT_ID": 54031,
          "ELEMENT_SET_NO": 999,
          "REV_AT_EPOCH": 2444,
          "BSTAR": 0,
          "MEAN_MOTION_DOT": -2.1e-07,
          "MEAN_MOTION_DDOT": 0
        }
      },
      "geometry": {
        "type": "Point",
        "coordinates": [
          NaN,
          NaN
        ]
      }
    }
  ]
}